STARLINK AL             
1 51138U 22005AL  22025.58334491 -.00902648  25666-3 -22806-2 0  9994
2 51138  53.2174 242.8950 0045654 187.7679 257.1780 15.92930200  2330
STARLINK AM             
1 51139U 22005AM  22025.58334491 -.00902078  25650-3 -22710-2 0  9999
2 51139  53.2174 242.8928 0045808 187.6647 258.2972 15.92982649  2330
STARLINK AN             
1 51140U 22005AN  22025.58334491 -.00902687  25674-3 -22761-2 0  9999
2 51140  53.2174 242.8942 0045830 187.6912 257.6154 15.92952483  2336
STARLINK AP             
1 51141U 22005AP  22025.58334491 -.00901721  25638-3 -22640-2 0  9994
2 51141  53.2174 242.8923 0046096 187.5747 258.6207 15.93007768  2334
STARLINK AQ             
1 51142U 22005AQ  22025.58334491 -.00902488  25661-3 -22703-2 0  9992
2 51142  53.2174 242.8947 0046469 187.6498 257.4420 15.92942100  2330
STARLINK AR             
1 51143U 22005AR  22025.58334491 -.00901070  25612-3 -22637-2 0  9991
2 51143  53.2174 242.8908 0045610 187.6260 259.2681 15.93036780  2330
STARLINK AS             
1 51144U 22005AS  22025.58334491 -.00901667  25632-3 -22703-2 0  9990
2 51144  53.2174 242.8925 0045646 187.6664 258.4908 15.92993140  2331
STARLINK AT             
1 51145U 22005AT  22025.58334491 -.00901238  25624-3 -22564-2 0  9991
2 51145  53.2174 242.8906 0046202 187.5676 259.4157 15.93050183  2331
STARLINK AU             
1 51146U 22005AU  22025.58334491 -.00901672  25628-3 -22667-2 0  9992
2 51146  53.2174 242.8936 0046207 187.4741 258.1180 15.92975994  2339
STARLINK AV             
1 51147U 22005AV  22025.58334491 -.00901800  25647-3 -22552-2 0  9990
2 51147  53.2174 242.8912 0046745 187.7736 258.9387 15.93026147  2333
STARLINK AW             
1 51148U 22005AW  22025.58334491 -.00901032  25616-3 -22510-2 0  9998
2 51148  53.2174 242.8900 0046579 187.4027 259.8817 15.93058164  2338
STARLINK AX             
1 51149U 22005AX  22025.58334491 -.00901019  25618-3 -22572-2 0  9994
2 51149  53.2174 242.8895 0045855 187.5756 259.9438 15.93067859  2339
STARLINK AY             
1 51150U 22005AY  22025.58334491 -.00901951  25652-3 -22623-2 0  9996
2 51150  53.2174 242.8919 0046208 187.8537 258.6105 15.93016809  2337
STARLINK AZ             
1 51151U 22005AZ  22025.58334491 -.00901160  25630-3 -22508-2 0  9997
2 51151  53.2174 242.8887 0046254 187.4690 260.4408 15.93089327  2331
STARLINK BA             
1 51152U 22005BA  22025.58334491 -.00900807  25609-3 -22512-2 0  9996
2 51152  53.2174 242.8891 0046269 187.4674 260.2772 15.93077706  2335
FALCON 9 DEB            
1 51153U 22005BB  22024.80168643  .00694074  11409-4  56134-3 0  9991
2 51153  53.2142 246.7048 0081733 182.7826 177.2766 16.06397161  1109
FALCON 9 DEB            
1 51154U 22005BC  22024.79988987  .00777868  11426-4  62070-3 0  9999
2 51154  53.2153 246.6933 0077132 184.8905 175.1385 16.07264328  1106
FALCON 9 DEB            
1 51155U 22005BD  22024.79602284  .00836408  11463-4  62299-3 0  9993
2 51155  53.2187 246.6698 0073717 181.8427 178.2348 16.08661159  1100
FALCON 9 DEB            
1 51156U 22005BE  22024.79635499  .00737246  11452-4  55842-3 0  9992
2 51156  53.2198 246.6727 0076058 182.4803 177.5866 16.08104958  1108
